{"type": "FeatureCollection", "features": [{"type": "Feature", "properties": {"stand": "31"}, "geometry": {"type": "Point", "coordinates": [19.2601833, 47.4309722]}}, {"type": "Feature", "properties": {"stand": "32"}, "geometry": {"type": "Point", "coordinates": [19.2597444, 47.4312444]}}, {"type": "Feature", "properties": {"stand": "33"}, "geometry": {"type": "Point", "coordinates": [19.2592639, 47.4315417]}}, {"type": "Feature", "properties": {"stand": "34"}, "geometry": {"type": "Point", "coordinates": [19.2588611, 47.4320056]}}, {"type": "Feature", "properties": {"stand": "39L"}, "geometry": {"type": "Point", "coordinates": [19.2592944, 47.4329028]}}, {"type": "Feature", "properties": {"stand": "39R"}, "geometry": {"type": "Point", "coordinates": [19.2587028, 47.4331361]}}, {"type": "Feature", "properties": {"stand": "35"}, "geometry": {"type": "Point", "coordinates": [19.2580389, 47.4325028]}}, {"type": "Feature", "properties": {"stand": "35L"}, "geometry": {"type": "Point", "coordinates": [19.2575583, 47.4325389]}}, {"type": "Feature", "properties": {"stand": "35R"}, "geometry": {"type": "Point", "coordinates": [19.2581722, 47.4324194]}}, {"type": "Feature", "properties": {"stand": "36"}, "geometry": {"type": "Point", "coordinates": [19.2571917, 47.4330389]}}, {"type": "Feature", "properties": {"stand": "36L"}, "geometry": {"type": "Point", "coordinates": [19.2567861, 47.4330028]}}, {"type": "Feature", "properties": {"stand": "36R"}, "geometry": {"type": "Point", "coordinates": [19.2573472, 47.432975]}}, {"type": "Feature", "properties": {"stand": "37"}, "geometry": {"type": "Point", "coordinates": [19.2577806, 47.4337056]}}, {"type": "Feature", "properties": {"stand": "38"}, "geometry": {"type": "Point", "coordinates": [19.2582278, 47.4334306]}}, {"type": "Feature", "properties": {"stand": "39"}, "geometry": {"type": "Point", "coordinates": [19.2593833, 47.4329111]}}, {"type": "Feature", "properties": {"stand": "34L"}, "geometry": {"type": "Point", "coordinates": [19.2583583, 47.4319778]}}, {"type": "Feature", "properties": {"stand": "34R"}, "geometry": {"type": "Point", "coordinates": [19.259, 47.431875]}}, {"type": "Feature", "properties": {"stand": "42"}, "geometry": {"type": "Point", "coordinates": [19.261475, 47.4340111]}}, {"type": "Feature", "properties": {"stand": "43"}, "geometry": {"type": "Point", "coordinates": [19.2616944, 47.434175]}}, {"type": "Feature", "properties": {"stand": "44"}, "geometry": {"type": "Point", "coordinates": [19.2623278, 47.4343833]}}, {"type": "Feature", "properties": {"stand": "45"}, "geometry": {"type": "Point", "coordinates": [19.2628361, 47.4340694]}}, {"type": "Feature", "properties": {"stand": "R210"}, "geometry": {"type": "Point", "coordinates": [19.2596111, 47.4351917]}}, {"type": "Feature", "properties": {"stand": "R211"}, "geometry": {"type": "Point", "coordinates": [19.2601556, 47.4355944]}}, {"type": "Feature", "properties": {"stand": "R212"}, "geometry": {"type": "Point", "coordinates": [19.2605639, 47.4359]}}, {"type": "Feature", "properties": {"stand": "R212A"}, "geometry": {"type": "Point", "coordinates": [19.2600944, 47.4355417]}}, {"type": "Feature", "properties": {"stand": "R220"}, "geometry": {"type": "Point", "coordinates": [19.2554611, 47.43365]}}, {"type": "Feature", "properties": {"stand": "R221"}, "geometry": {"type": "Point", "coordinates": [19.2558722, 47.4339556]}}, {"type": "Feature", "properties": {"stand": "R222"}, "geometry": {"type": "Point", "coordinates": [19.2564028, 47.4343528]}}, {"type": "Feature", "properties": {"stand": "R223"}, "geometry": {"type": "Point", "coordinates": [19.2568139, 47.4346583]}}, {"type": "Feature", "properties": {"stand": "R224"}, "geometry": {"type": "Point", "coordinates": [19.2580556, 47.4355806]}}, {"type": "Feature", "properties": {"stand": "R225"}, "geometry": {"type": "Point", "coordinates": [19.2584667, 47.4358889]}}, {"type": "Feature", "properties": {"stand": "R226"}, "geometry": {"type": "Point", "coordinates": [19.2590028, 47.4362861]}}, {"type": "Feature", "properties": {"stand": "R227"}, "geometry": {"type": "Point", "coordinates": [19.2594139, 47.4365917]}}, {"type": "Feature", "properties": {"stand": "R270"}, "geometry": {"type": "Point", "coordinates": [19.2633556, 47.4358167]}}, {"type": "Feature", "properties": {"stand": "R271"}, "geometry": {"type": "Point", "coordinates": [19.2637861, 47.43555]}}, {"type": "Feature", "properties": {"stand": "R272"}, "geometry": {"type": "Point", "coordinates": [19.2642194, 47.4352833]}}, {"type": "Feature", "properties": {"stand": "R273"}, "geometry": {"type": "Point", "coordinates": [19.26465, 47.4350167]}}, {"type": "Feature", "properties": {"stand": "R274"}, "geometry": {"type": "Point", "coordinates": [19.2651833, 47.4346861]}}, {"type": "Feature", "properties": {"stand": "R275"}, "geometry": {"type": "Point", "coordinates": [19.2656139, 47.4344194]}}, {"type": "Feature", "properties": {"stand": "R276"}, "geometry": {"type": "Point", "coordinates": [19.2660444, 47.4341528]}}, {"type": "Feature", "properties": {"stand": "R277"}, "geometry": {"type": "Point", "coordinates": [19.266475, 47.4338861]}}, {"type": "Feature", "properties": {"stand": "R278"}, "geometry": {"type": "Point", "coordinates": [19.2669917, 47.4334611]}}, {"type": "Feature", "properties": {"stand": "R278A"}, "geometry": {"type": "Point", "coordinates": [19.2668361, 47.4335028]}}, {"type": "Feature", "properties": {"stand": "R279"}, "geometry": {"type": "Point", "coordinates": [19.2675556, 47.4331306]}}, {"type": "Feature", "properties": {"stand": "G150"}, "geometry": {"type": "Point", "coordinates": [19.2253583, 47.440675]}}, {"type": "Feature", "properties": {"stand": "G151"}, "geometry": {"type": "Point", "coordinates": [19.2258944, 47.4404861]}}, {"type": "Feature", "properties": {"stand": "G152"}, "geometry": {"type": "Point", "coordinates": [19.2258778, 47.4402889]}}, {"type": "Feature", "properties": {"stand": "G153"}, "geometry": {"type": "Point", "coordinates": [19.2252083, 47.4402972]}}, {"type": "Feature", "properties": {"stand": "G154"}, "geometry": {"type": "Point", "coordinates": [19.2256889, 47.4395028]}}, {"type": "Feature", "properties": {"stand": "G155"}, "geometry": {"type": "Point", "coordinates": [19.2251111, 47.4394889]}}, {"type": "Feature", "properties": {"stand": "G160"}, "geometry": {"type": "Point", "coordinates": [19.2257194, 47.4390583]}}, {"type": "Feature", "properties": {"stand": "G161"}, "geometry": {"type": "Point", "coordinates": [19.2255278, 47.4389306]}}, {"type": "Feature", "properties": {"stand": "G162"}, "geometry": {"type": "Point", "coordinates": [19.2254361, 47.4387556]}}, {"type": "Feature", "properties": {"stand": "G170"}, "geometry": {"type": "Point", "coordinates": [19.22595, 47.4386056]}}, {"type": "Feature", "properties": {"stand": "G171"}, "geometry": {"type": "Point", "coordinates": [19.2260556, 47.438075]}}, {"type": "Feature", "properties": {"stand": "G172"}, "geometry": {"type": "Point", "coordinates": [19.2263528, 47.4377]}}, {"type": "Feature", "properties": {"stand": "R101"}, "geometry": {"type": "Point", "coordinates": [19.2231056, 47.4441167]}}, {"type": "Feature", "properties": {"stand": "R102"}, "geometry": {"type": "Point", "coordinates": [19.2235472, 47.4434361]}}, {"type": "Feature", "properties": {"stand": "R103"}, "geometry": {"type": "Point", "coordinates": [19.2240611, 47.4427389]}}, {"type": "Feature", "properties": {"stand": "R104"}, "geometry": {"type": "Point", "coordinates": [19.2247694, 47.4418028]}}, {"type": "Feature", "properties": {"stand": "R105"}, "geometry": {"type": "Point", "coordinates": [19.2245722, 47.4420389]}}, {"type": "Feature", "properties": {"stand": "R106"}, "geometry": {"type": "Point", "coordinates": [19.2250389, 47.4414361]}}, {"type": "Feature", "properties": {"stand": "R107"}, "geometry": {"type": "Point", "coordinates": [19.2253083, 47.4410722]}}, {"type": "Feature", "properties": {"stand": "R108"}, "geometry": {"type": "Point", "coordinates": [19.2250861, 47.4413417]}}, {"type": "Feature", "properties": {"stand": "R110"}, "geometry": {"type": "Point", "coordinates": [19.2275194, 47.4396472]}}, {"type": "Feature", "properties": {"stand": "R111"}, "geometry": {"type": "Point", "coordinates": [19.2277556, 47.4395306]}}, {"type": "Feature", "properties": {"stand": "R112"}, "geometry": {"type": "Point", "coordinates": [19.2278833, 47.4393194]}}, {"type": "Feature", "properties": {"stand": "R113"}, "geometry": {"type": "Point", "coordinates": [19.2282306, 47.4391028]}}, {"type": "Feature", "properties": {"stand": "R114"}, "geometry": {"type": "Point", "coordinates": [19.2282333, 47.4390083]}}, {"type": "Feature", "properties": {"stand": "R115"}, "geometry": {"type": "Point", "coordinates": [19.2288639, 47.4386722]}}, {"type": "Feature", "properties": {"stand": "R116"}, "geometry": {"type": "Point", "coordinates": [19.2295, 47.4378694]}}, {"type": "Feature", "properties": {"stand": "R117"}, "geometry": {"type": "Point", "coordinates": [19.2295333, 47.4380694]}}, {"type": "Feature", "properties": {"stand": "R117A"}, "geometry": {"type": "Point", "coordinates": [19.2290806, 47.4380861]}}, {"type": "Feature", "properties": {"stand": "A1"}, "geometry": {"type": "Point", "coordinates": [19.2380917, 47.4310889]}}, {"type": "Feature", "properties": {"stand": "A2"}, "geometry": {"type": "Point", "coordinates": [19.2387194, 47.4308806]}}, {"type": "Feature", "properties": {"stand": "A3"}, "geometry": {"type": "Point", "coordinates": [19.2393472, 47.4306694]}}, {"type": "Feature", "properties": {"stand": "A4"}, "geometry": {"type": "Point", "coordinates": [19.2399778, 47.4304611]}}, {"type": "Feature", "properties": {"stand": "G180"}, "geometry": {"type": "Point", "coordinates": [19.2349528, 47.4313333]}}, {"type": "Feature", "properties": {"stand": "G181"}, "geometry": {"type": "Point", "coordinates": [19.2353722, 47.4311611]}}, {"type": "Feature", "properties": {"stand": "G182"}, "geometry": {"type": "Point", "coordinates": [19.2358139, 47.4310167]}}, {"type": "Feature", "properties": {"stand": "G183"}, "geometry": {"type": "Point", "coordinates": [19.2362556, 47.4308694]}}, {"type": "Feature", "properties": {"stand": "G184"}, "geometry": {"type": "Point", "coordinates": [19.2366944, 47.4307222]}}, {"type": "Feature", "properties": {"stand": "G190L"}, "geometry": {"type": "Point", "coordinates": [19.236125, 47.4321194]}}, {"type": "Feature", "properties": {"stand": "G190"}, "geometry": {"type": "Point", "coordinates": [19.236275, 47.4320333]}}, {"type": "Feature", "properties": {"stand": "G190R"}, "geometry": {"type": "Point", "coordinates": [19.2363972, 47.4319139]}}, {"type": "Feature", "properties": {"stand": "G191L"}, "geometry": {"type": "Point", "coordinates": [19.2368056, 47.4318944]}}, {"type": "Feature", "properties": {"stand": "G191"}, "geometry": {"type": "Point", "coordinates": [19.2369528, 47.4318083]}}, {"type": "Feature", "properties": {"stand": "G191R"}, "geometry": {"type": "Point", "coordinates": [19.237075, 47.4316889]}}, {"type": "Feature", "properties": {"stand": "G192"}, "geometry": {"type": "Point", "coordinates": [19.2375444, 47.4316139]}}, {"type": "Feature", "properties": {"stand": "L1"}, "geometry": {"type": "Point", "coordinates": [19.2424833, 47.4296306]}}, {"type": "Feature", "properties": {"stand": "L2"}, "geometry": {"type": "Point", "coordinates": [19.2431917, 47.4293944]}}, {"type": "Feature", "properties": {"stand": "L3"}, "geometry": {"type": "Point", "coordinates": [19.2439028, 47.4291583]}}, {"type": "Feature", "properties": {"stand": "C1R"}, "geometry": {"type": "Point", "coordinates": [19.2773806, 47.4285528]}}, {"type": "Feature", "properties": {"stand": "C1"}, "geometry": {"type": "Point", "coordinates": [19.2772028, 47.4284194]}}, {"type": "Feature", "properties": {"stand": "C1L"}, "geometry": {"type": "Point", "coordinates": [19.2772639, 47.4281333]}}, {"type": "Feature", "properties": {"stand": "C2R"}, "geometry": {"type": "Point", "coordinates": [19.276625, 47.4279917]}}, {"type": "Feature", "properties": {"stand": "C2"}, "geometry": {"type": "Point", "coordinates": [19.2764417, 47.4278556]}}, {"type": "Feature", "properties": {"stand": "C2L"}, "geometry": {"type": "Point", "coordinates": [19.2765083, 47.4275694]}}, {"type": "Feature", "properties": {"stand": "C3L"}, "geometry": {"type": "Point", "coordinates": [19.27965, 47.4271444]}}, {"type": "Feature", "properties": {"stand": "C3"}, "geometry": {"type": "Point", "coordinates": [19.2795444, 47.4269694]}}, {"type": "Feature", "properties": {"stand": "C3R"}, "geometry": {"type": "Point", "coordinates": [19.2790917, 47.4269972]}}, {"type": "Feature", "properties": {"stand": "C4L"}, "geometry": {"type": "Point", "coordinates": [19.2788944, 47.4265833]}}, {"type": "Feature", "properties": {"stand": "C4"}, "geometry": {"type": "Point", "coordinates": [19.2787861, 47.4264056]}}, {"type": "Feature", "properties": {"stand": "C4R"}, "geometry": {"type": "Point", "coordinates": [19.2783361, 47.4264361]}}]}